STARLINK-32404          
1 61710U 24196D   26068.36319980  .00000290  00000+0  21940-4 0  9998
2 61710  53.1598 103.0657 0001274  76.9495 283.1648 15.30188060 77103
LIZZIESAT-2 (LS-2)      
1 62383U 24247G   26068.49140277  .00009388  00000+0  34517-3 0  9997
2 62383  44.9909 117.0823 0004092 327.5136  32.5495 15.28222796 67716
